[{"OBJECT_NAME":"STARLINK-4591","OBJECT_ID":"2022-104V","EPOCH":"2026-03-09T18:02:08.977920","MEAN_MOTION":15.08841572,"ECCENTRICITY":0.00014094,"INCLINATION":53.2164,"RA_OF_ASC_NODE":238.8956,"ARG_OF_PERICENTER":93.6563,"MEAN_ANOMALY":266.459,"EPHEMERIS_TYPE":0,"CLASSIFICATION_TYPE":"U","NORAD_CAT_ID":53607,"ELEMENT_SET_NO":999,"REV_AT_EPOCH":19569,"BSTAR":-1.512017e-5,"MEAN_MOTION_DOT":-5.29e-6,"MEAN_MOTION_DDOT":0},{"OBJECT_NAME":"LEMUR-2-THERMORAPTOR","OBJECT_ID":"2025-061D","EPOCH":"2026-03-09T21:59:50.013312","MEAN_MOTION":15.13256334,"ECCENTRICITY":0.00176188,"INCLINATION":97.562,"RA_OF_ASC_NODE":45.6468,"ARG_OF_PERICENTER":235.5571,"MEAN_ANOMALY":124.3996,"EPHEMERIS_TYPE":0,"CLASSIFICATION_TYPE":"U","NORAD_CAT_ID":63354,"ELEMENT_SET_NO":999,"REV_AT_EPOCH":5259,"BSTAR":0.00030402789,"MEAN_MOTION_DOT":5.359e-5,"MEAN_MOTION_DDOT":0}]
